{
  "norad_id": 59955,
  "name": "STARLINK-11144 [DTC]",
  "history": [
    {
      "epoch": "2026-03-28T21:15:42.679296Z",
      "apogee_km": 360.36909295997884,
      "perigee_km": 359.19265249940145,
      "latitude_deg": 3.537689785055763e-05,
      "longitude_deg": 11.215366663357184,
      "height_km": 360.86674457128674,
      "semi_major_axis_km": 6737.91787272969,
      "eccentricity": 8.73e-05,
      "inclination_deg": 53.1589,
      "raan_deg": 156.4431,
      "arg_perigee_deg": 107.0019,
      "mean_anomaly_deg": 253.1095,
      "mean_motion_rev_day": 15.69691087
    }
  ]
}