{"fetched_at":"2026-03-29T16:36:15Z","count":15609,"tles":[{"name":"STARLINK-11144 [DTC]","line1":"1 59955U 24107L   26087.88591064  .00001523  00000+0  17438-4 0  9998","line2":"2 59955  53.1589 156.4431 0000873 107.0019 253.1095 15.69691087105223","category":"Starlink"}]}